placename	lat	lon
Tallinn	59.44	24.76
Tartu	58.38	26.74
St. Petersburg	59.94	30.3
Pärnu	58.4	24.5
Viljandi	58.36	25.6
Stockholm	59.32	18.06
Riga	56.96	24.12
Helsinki	60.18	24.94
Toronto	43.7	-79.42
Kuressaare	58.24	22.5
Narva	59.38	28.2
Lohkva	58.36	26.8
Rakvere	59.36	26.36
Võru	57.82	27.02
Paide	58.88	25.56
Lund	55.72	13.2
Haapsalu	58.94	23.54
Berlin	52.52	13.4
Leipzig	51.34	12.36
New York	40.72	-74
Valga	57.78	26.04
Moskva	55.76	37.62
Jõgeva	58.76	26.38
Uppsala	59.86	17.64
London	51.52	-0.14
Paris	48.84	2.36
Göteborg	57.72	11.98
Rapla	59	24.78
Saue	59.32	24.56
Vilnius	54.68	25.28
Keila	59.3	24.4
Kärdla	59	22.76
Kohtla-Järve	59.4	27.26
Budapest	47.5	19.04
Hamburg	53.56	10
Põlva	58.06	27.06
München	48.14	11.58
Elva	58.22	26.42
Habaja	59.1	25.18
Jõhvi	59.36	27.42
Szczecin	53.42	14.56
Metsakasti	59.48	24.88
Praha	50.1	14.42
Sauga	58.42	24.48
Turku	60.44	22.26
Tõrva	58	25.94
Warszawa	52.22	21.02
Adelaide	-34.94	138.6
Aespa	59.2	24.66
Vadstena	58.44	14.88
Stuttgart	48.78	9.18
Heilbronn	49.14	9.22
Liivamäe	59.44	24.96
Jyväskylä	62.24	25.72
Jena	50.94	11.6
Viimsi	59.52	24.84
Räpina	58.1	27.46
Frankfurt am Main	50.12	8.68
Jädivere	58.68	24.44
Aegviidu	59.28	25.62
Rostock	54.1	12.14
Sydney	-33.86	151.22
Muraste	59.46	24.44
Uuesalu	59.36	24.82
Copenhagen	55.68	12.58
Jäneda	59.24	25.7
Porvoo	60.4	25.68
Wien	48.22	16.38
Tabasalu	59.42	24.56
Amsterdam	52.36	4.88
Tampere	61.5	23.78
Göttingen	51.52	9.92
Oslo	59.9	10.76
Lübeck	53.86	10.68
Augsburg	48.36	10.9
Halle	51.48	11.98
Köln	50.94	6.96
Washington, D.C	38.9	-77.04
Harkujärve	59.4	24.6
Melbourne	-37.82	144.96
Väike-Maarja	59.14	26.24
Haabneeme	59.52	24.82
Lihula	58.68	23.84
Värska	57.96	27.64
Ülenurme	58.32	26.74
Baltimore	39.28	-76.6
Bonn	50.72	7.1
Hannover-Döhren	52.32	9.8
Otepää	58.06	26.5
Petseri	57.82	27.62
Kiel	54.32	10.14
Los Angeles	34.04	-118.24
Lüneburg	53.24	10.4
Pärnu-Jaagupi	58.6	24.52
Saarbrücken	49.22	7
Tõravere	58.28	26.46
Vantaa	60.28	25.04
Bratislava	48.16	17.12
Nõo	58.28	26.54
Maardu	59.48	24.98
Imavere	58.72	25.76
Luige (Harjumaa)	59.32	24.78
Puhja (Tartumaa)	58.36	26.36
Iisaku	59.1	27.3
Koidu (Harjumaa)	59.34	24.6
Dorpati	26.88	82.8
Kilingi-Nõmme	58.16	24.96
Sillamäe	59.4	27.76
Weimar	50.98	11.32
Brüssel	50.84	4.36
Heidelberg	49.4	8.68
Kaunas	54.9	23.92
Märjamaa	58.9	24.44
Oulu	65	25.46
Wiesbaden	50.08	8.24
Kadrina	59.32	26.14
Roma	41.88	12.5
Strasbourg	48.58	7.76
Wrocław	51.1	17.04
Greifswald	54.1	13.4
Jüri	59.36	24.92
Kanepi	57.98	26.76
Kose-Uuemõisa	59.2	25.12
Nõmme [Tallinn]	59.38	24.68
Vancouver	49.24	-123.12
Leeningrad [!]	59.92	30.36
Tammneeme	59.52	24.88
Montreal	45.5	-73.6
Obinitsa	57.8	27.44
Tõrvandi	58.32	26.72
Erlangen	49.6	11
Kadrina [Lääne-Virumaa]	59.36	26.04
Kuusalu	59.44	25.44
Geneva	46.2	6.16
Brooklyn	40.64	-73.96
Oberpahlen	58.64	25.96
Pärnamäe	59.5	24.86
Alliku (Harjumaa)	59.36	24.56
Borås	57.72	12.94
Hämeenlinna	61	24.46
Käsmu	59.6	25.92
Abja-Paluoja	58.14	25.36
Giessen	50.6	8.68
Leiden	52.16	4.5
Muhu	58.6	23.24
Vääna-Jõesuu	59.42	24.38
Chicago	41.84	-87.64
Ilmatsalu	58.4	26.56
Kehtna	58.92	24.88
Milano	45.46	9.18
Münster	51.96	7.62
Palamuse	58.68	26.58
Tübingen	48.52	9.04
Viimsi (Harjumaa)	59.5	24.84
Örebro	59.28	15.22
Antsla	57.82	26.54
Bremen	53.08	8.82
Jälgimäe	59.32	24.6
Koeru	58.96	26.04
Narva-Jõesuu	59.46	28.04
Paldiski	59.36	24.04
Basingstoke	51.26	-1.08
Kuopio	62.88	27.68
Philadelphia	39.96	-75.16
Suure-Jaani	58.54	25.46
Zürich	47.36	8.56
Kambja	58.22	26.7
Karksi-Nuia	58.1	25.56
Kullamaa	58.88	24.08
Lüganuse	59.38	27.04
Minneapolis	44.98	-93.26
Niagara Falls (Kanada)	43.1	-79.06
Omsk	55	73.38
Puurmani	58.58	26.28
Põltsamaal	58.66	25.98
The Hague	52.08	4.3
Alatskivi	58.6	27.14
Aruvalla küla	59.24	25.02
Dresden	51.04	13.74
Helme	58	25.9
Hilana	57.82	27.38
Mustvee	58.84	26.94
Paduvere	58.8	26.32
Szombathely	47.22	16.62
Tila küla	58.42	26.78
Tokyo	35.68	139.7
Varbuse	58.02	26.92
[Viborg], Taani	56.44	9.4
Bielefeld	52.02	8.52
Darmstadt	49.86	8.64
Haanja	57.72	27.04
Joensuu	62.6	29.76
Järvakandi	58.78	24.82
Krakow	50.06	19.94
Kündja	57.7	27.2
Luunja	58.36	26.88
Norrköping	58.6	16.18
Rõngu	58.16	26.24
Zagreb	45.82	15.98
Abja	58.12	25.36
Augsburg-Hochfeld	48.34	10.9
Braunschweig	52.28	10.52
Järva-Jaani	59.04	25.88
Jõelähtme	59.44	25.14
Malmö	55.6	13
Marburg	50.82	8.76
Mäetaguse	59.22	27.26
Nürnberg	49.44	11.08
Vana-Vigala	58.78	24.26
Vastseliina	57.72	27.28
Basel	47.56	7.58
Espoo	60.2	24.64
Flensburg	54.78	9.44
Järvaküla (Tartumaa)	58.32	26.3
Karlsruhe	49	8.4
Kihnu	58.12	23.96
Kiili	59.32	24.84
Kiviõli	59.36	26.96
Kloogaranna	59.36	24.24
Koguva	58.6	23.08
Leppneeme	59.56	24.86
Linköping	58.4	15.62
Luton	51.88	-0.42
Madrid	40.42	-3.7
Melliste	58.32	26.98
Roela	59.18	26.6
Barcelona	41.38	2.16
Boston	42.36	-71.06
Bucuresti	44.44	26.12
Hannover	52.36	9.74
Jelgava	56.64	23.72
Juuru	59.06	24.96
Kehra	59.34	25.32
Laiuse	58.8	26.48
Ljubljana	46.04	14.52
Madise (Harjumaa)	59.28	24.12
Olustvere	58.56	25.56
Peetri (Harjumaa)	59.4	24.8
Porkuni	59.2	26.22
Vormsi	59	23.22
Bromma	59.34	17.94
Cardiff	51.48	-3.18
Danzig	54.36	18.64
Erfurt	50.98	11.02
Gotha	50.96	10.7
Haljala [Lääne-Virumaa]	59.44	26.22
Häädemeeste	58.08	24.5
Oomiste	58.2	26.52
Petroskoi	61.78	34.36
Pinneberg	53.68	9.78
Portland	45.52	-122.68
Püünsi	59.56	24.8
Seattle	47.62	-122.32
Toila	59.42	27.52
Würzburg	49.78	9.96
Arles	43.68	4.62
Avinurme	58.98	26.86
Dordrecht	51.8	4.68
Lohusalu	59.4	24.2
Magdeburg	52.14	11.64
Oldenburg	53.14	8.22
Piaseczno	52.08	21.02
Pilistvere	58.66	25.74
Pürksi	59	23.54
Ruhnu	57.8	23.24
Slovakia		
Tarto-linan	9.18	123.66
Torino	45.06	7.7
Vaida	59.28	24.98
Aruküla	59.36	25.08
Eskilstuna	59.36	16.52
Kassel	51.32	9.5
Kohtla-Nõmme	59.36	27.18
Lümanda	58.28	22.04
Montfort-en-Chalosse	43.72	-0.84
Mõdriku (Lääne-Virumaa)	59.32	26.46
Paali	58.2	26.72
Painküla (Jõgevamaa)	58.72	26.4
Punsa	57.64	26.62
Salzburg	47.8	13.04
Serga (Võrumaa)	57.76	27.48
Sihva [Valgamaa]	58.02	26.42
Soinaste (Tartumaa)	58.34	26.7
Stade	53.6	9.48
Södertälje	59.2	17.62
Tahkuranna	58.24	24.48
Torma	58.8	26.74
Umeå	63.82	20.26
Vaasa	63.1	21.62
Vaela	59.34	24.8
Woodsville (N.H.)	44.16	-72.04
Buffalo	42.88	-78.88
Cēsis	57.32	25.26
Glasgow	55.86	-4.26
Hilden	51.18	6.92
Hildesheim	52.16	9.96
Järveküla	59.38	24.78
Kiisa	59.24	24.68
Kurgja	58.68	25.24
Laulasmaa	59.4	24.24
Loksa	59.58	25.72
Luhametsa	57.78	26.7
Mallika	57.72	27.14
Mähkli	57.72	26.46
Padise	59.22	24.14
Rovaniemi	66.5	25.72
Ruhingu	57.92	26.64
Saaremaa, [Kuressaare]	58.24	22.48
Schwarzenbek	53.5	10.48
Tarvastu	58.22	25.86
Tudulinna	59.04	27.08
Tõstamaa	58.32	24
Väimela	57.88	27.02
Alphen aan den Rijn	52.14	4.66
Cleveland	41.5	-81.7
Frederikshavn	57.44	10.54
Harku vald	59.4	24.46
Helmstedt	52.22	11
Helsingborg	56.04	12.68
Husum	54.48	9.04
Kallavere	59.48	25.04
Karilatsi	58.14	26.92
Kuremäe	59.2	27.54
Liiküla	58.58	22.44
Ottawa	45.4	-75.7
Potsdam	52.4	13.06
Pudisoo	59.52	25.56
Puhja	58.34	26.3
Salt Lake City	40.76	-111.9
Tabivere	58.56	26.58
Tihemetsa	58.16	25.04
Uuemõisa	58.94	23.6
Valmiera	57.54	25.44
Viitna	59.46	26.02
Võduvere	58.76	26.44
Alu (Raplamaa)	59.02	24.76
Ambla	59.2	25.84
Amherst (Mass.)	42.36	-72.52
Aseri	59.44	26.86
Cincinnati	39.14	-84.52
Columbia, in the USA	40.82	-73.96
Darmstadt-Eberstadt [Saksamaa]	49.82	8.64
Groningen	53.22	6.58
Gørløse	55.88	12.2
Gütersloh	51.9	8.38
Haljala	59.42	26.26
Hiiumaa	58.86	22.58
Illuka	59.24	27.48
Kiev	50.44	30.52
Käina	58.82	22.78
Königstein im Taunus	50.18	8.48
Lehtse	59.24	25.82
Leisi	58.58	22.7
Linaküla	58.14	23.96
Lublin	51.24	22.56
Meiningen	50.56	10.42
Metsanurme	59.26	24.66
Mikitamäe	58	27.56
Mikkeli	61.68	27.26
Mooste	58.16	27.2
Newcastle upon Tyne	54.98	-1.62
Odense	55.4	10.4
Pulli (Pärnumaa)	58.42	24.68
Reola	58.3	26.72
Revaliae	61.26	9.68
Salmistu	59.48	25.38
Shkup	42	21.44
Suurupi	59.46	24.4
Szolnok	47.18	20.2
Uusvada	57.78	27.48
Vaivara	59.36	27.76
Valkla	59.48	25.32
Vana-Võidu	58.4	25.64
Velise	58.8	24.52
Viru-Nigula	59.44	26.7
Visby	57.64	18.3
Västerås	59.62	16.56
Võsivere	58.34	26.44
Võsu	59.58	25.98
[Grēnes] Latvia	56.8	23.96
Alexandria (Virginia)	38.8	-77.04
Ann Arbor	42.28	-83.74
Annikoru	58.28	26.3
Arvika	59.66	12.6
Baile Átha Cliath	53.32	-6.24
Beau Bassin	-20.24	57.48
Beograd	44.8	20.46
Bologna	44.5	11.34
Bradford	53.8	-1.76
Brno	49.2	16.6
Debrecen	47.54	21.62
Detmold	51.94	8.86
Essen	51.46	7
Germany	51.18	10.44
Hageri	59.16	24.64
Holstre	58.28	25.7
Huddinge	59.2	18.02
Huuksi	58.84	25.8
Ilmandu	59.44	24.46
Innsbruck	47.26	11.4
Juva	61.9	27.84
Kata küla (Kose vald)	59.2	24.96
Kauniainen	60.2	24.74
Klooga	59.32	24.22
Kodijärve	58.18	26.54
Kolga (Harjumaa)	59.56	25.54
Kuremaa	58.74	26.52
Lahti	60.98	25.66
Lanham	38.96	-76.86
Lappeenranta	61.06	28.2
Leedu	58.98	25.56
Lemmatsi	58.34	26.64
Leuven	50.88	4.7
Loo (Harjumaa)	59.42	24.96
Matsalu	58.72	23.7
Märja	58.36	26.64
Mārupe	56.88	23.96
Norderstedt	53.68	9.98
Orissaare	58.56	22.96
Osula	57.88	26.82
Paderborn	51.72	8.76
Paikuse	58.38	24.62
Palade	58.96	22.84
Palamuse (Jõgevamaa)	58.68	26.56
Peedu	59.2	25.62
Pfullingen	48.46	9.24
Päidla	58.12	26.48
Põlula	59.32	26.62
Reinbek bei Hamburg	53.52	10.24
Savariae	54.92	24.66
Scarborough (Ontario)	43.74	-79.22
Schwerin	53.64	11.4
Taebla	58.96	23.76
Talliinan	30.04	31.3
Tamsalu	59.16	26.12
Tartu / Ihaste	58.36	26.78
Treimani	57.92	24.4
Tubala	58.96	22.76
Uzsgorod	48.62	22.28
Vasalemma	59.24	24.28
Vasula (Tartumaa)	58.48	26.74
Århus	56.16	10.22
Õssu	58.36	26.66
Aldershot	51.24	-0.76
Alliku küla	59.36	24.58
Aravete	59.14	25.76
Arvidsjaur [Rootsi]	65.6	19.28
Audru [Pärnumaa]	58.4	24.24
Badacsonytördemic	46.82	17.46
Berkeley	37.86	-122.28
Bern	46.96	7.44
Bloomington (Ind.)	39.18	-86.52
Caen	49.18	-0.36
Columbus (Ohio)	39.96	-83
Daugavpils	55.88	26.54
EU:ssa	17.96	-102.18
Freiburg	48	7.84
Görlitz	51.16	15
Hamburg-Rahlstedt	53.6	10.16
Heimtali	58.32	25.52
Hummuli	57.9	26.06
Hüüru	59.38	24.54
Istanbul	41	28.96
Jerusalem	31.76	35.22
Jädivere (Raplamaa)	58.72	24.44
Jõgevamaa	58.8	26.6
Kaigutsi	58.84	22.68
Kanavere	59.18	25.06
Kangru alevik	59.36	24.78
Karinu	59.04	25.96
Kassari	58.8	22.84
Kelvingi (Harjumaa)	59.56	24.84
Kemi	65.74	24.56
Kiidjärve	58.14	27.02
Kista	59.4	17.94
Kiwimäe-Nõmme-Seewald [Tallinn]	59.42	24.7
Koonga	58.58	24.16
Kotinuka	59.38	27.42
Kuivastu	58.58	23.38
Kumla	59.14	15.14
Küttejõu	59.36	27
Laagri [Harjumaa]	59.36	24.6
Lagedi	59.4	24.94
Lalsi (Viljandimaa)	58.48	26.04
Lausanne	46.52	6.62
Leevaku	58.1	27.32
Leicester	52.64	-1.12
Lewiston	46.42	-117.02
Loodi	58.28	25.56
Luua	58.64	26.6
Luunja [Tartumaa]	58.4	26.96
Maarja-Magdaleena	58.6	26.74
Mainz	49.98	8.28
Mannheim	49.5	8.48
Manniva	59.48	25.12
Marseille	43.3	5.38
Meremäe	57.74	27.46
Mõedaka	59.32	26.56
Mölndal	57.66	12
Narva-Joaoru	59.36	28.2
Novi Ligure	44.76	8.78
Orjaku	58.8	22.76
Paistu	58.28	25.62
Pirgu	59.12	24.84
Pürksi [Läänemaa]	59	23.52
Raasiku	59.36	25.18
Rae	59.38	24.88
Randers	56.46	10.04
Randvere [Harjumaa]	59.52	24.9
Regensburg	49.02	12.1
Reo küla	58.32	22.64
Roosna-Alliku	59.02	25.72
Roskilde	55.64	12.08
Saku [Harjumaa]	59.3	24.66
Schwabach	49.32	11.02
Sigtuna	59.62	17.72
Sõmerpalu	57.84	26.82
Taaralinn	29.46	-0.5
Tbilisi	41.68	44.82
Tiranë	41.32	19.82
Todmorden	53.72	-2.1
Tollarp	55.92	13.98
Tondi [Tallinn	59.4	24.74
Utrecht	52.1	5.12
Valjala	58.4	22.8
Varnja	58.48	27.24
Veibri	58.34	26.78
Vidrike	58	26.52
Vinni	59.3	26.44
Virtsu	58.58	23.52
Αθήνα	37.98	23.74
Aachen	50.78	6.08
Adavere	58.72	25.9
Ahtme	59.32	27.42
Albu [Järvamaa]	59.14	25.64
Altona	53.56	9.92
Anija	59.38	25.32
Annikoru (Tartumaa)	58.26	26.3
Anseküla	58.1	22.24
Antwerpen	51.22	4.4
Aruküla (Harjumaa)	59.36	25.06
Aspach	48.96	9.4
Assamalla	59.22	26.26
Aude (Harjumaa)	59.16	24.24
Belfast	54.6	-5.92
Bergisch Gladbach	51	7.12
Berlin-Lichterfelde	52.42	13.32
Berlin-Steglitz	52.46	13.34
Birmingham	52.48	-1.9
Bochum	51.48	7.22
Borrby, Vormsi	59.02	23.24
Brampton [Kanada]	43.72	-79.76
Canmore (Alberta)	51.1	-115.36
Champaign	40.12	-88.24
Charleston	32.78	-79.94
Colorado Springs	38.82	-104.82
Darpatâ	10	-13.78
Dillenburg [Saksamaa]	50.76	8.28
Dubai	25.08	55.32
Düsseldorf	51.22	6.78
Eidapere	58.76	24.94
Eschenburg	50.82	8.36
Falköping	58.18	13.56
Forssa	60.8	23.62
Freising	48.4	11.76
Graz	47.06	15.44
Haaslava	58.32	26.78
Halifax	44.64	-63.58
Heide	54.2	9.1
Helmstadii	61.3	10.16
Iisaku [Ida-Virumaa]	59.12	27.3
Indianapolis	39.78	-86.16
Jokioinen	60.8	23.48
Juminda	59.64	25.52
Jyväskyla	62.24	25.76
Jämejala	58.4	25.56
Jõgeva (Eesti)	58.74	26.38
Jõgisoo	59.28	24.52
Jõune (Jõgevamaa)	58.68	26.36
Kabli	58	24.44
Kaiu	59	25.06
Kanepi [Põlvamaa]	58	26.76
Karula (Valgamaa)	57.76	26.3
Karuse	58.62	23.72
Keibu	59.26	23.76
Kihelkonna	58.36	22.04
Kivi-Vigala	58.72	24.38
Kivi-Vigala [Raplamaa]	58.72	24.36
Klintehamn	57.4	18.2
Koigi (Järvamaa)	58.82	25.74
Kokkola	63.84	23.12
Kolga-Jaani	58.52	25.96
Konguta (Tartumaa)	58.22	26.3
Koolina	28.2	77.44
Kuhjavere	58.5	25.7
Kuigatsi	58	26.22
Kuldīga	56.98	21.96
Kuri	58.96	22.94
Kärstna	58.16	25.8
Käärdi	58.2	26.42
Kääriku	58	26.38
Laadi (Pärnumaa)	58.28	24.62
Laadjala	58.32	22.56
Laatre	57.86	26.24
Laitse	59.2	24.38
Langenthal	47.22	7.8
Laulasmaa [Harjumaa]	59.38	24.24
Lehu (Pärnumaa)	58.64	24.64
Lelle (Raplamaa)	58.86	25.02
Lidingö	59.36	18.12
Llangennech	51.7	-4.08
Loodna	58.88	24.24
Lustivere	58.68	26.08
Lüllemäe (Valgamaa)	57.76	26.36
Madison	43.06	-89.4
Malden (Mass.)	42.44	-71.06
Martna	58.86	23.8
Metsla	59.02	25.98
Miskolc	48.1	20.78
Misso	57.6	27.24
Mõniste	57.6	26.62
Nancy	48.68	6.18
Nassau Bay (USA)	29.54	-95.1
Neuwied	50.44	7.48
New Delhi	28.64	77.24
Niagara Falls [Kanada]	43.1	-79.08
Norman (Okla.)	35.22	-97.44
North Vancouver	49.32	-123.06
Norwich	52.64	1.3
Oakland (California)	37.8	-122.28
Oonurme	59.12	26.92
Osnabrück	52.28	8.04
Osula [Võrumaa]	57.88	26.84
Palmer Lake, CO	39.12	-104.92
Palupera	58.12	26.34
Penijõe [Läänemaa]	58.72	23.82
Perila	59.3	25.18
Pieksämäki	62.3	27.14
Poznań	52.4	16.94
Preedi	58.92	26.14
Pudisoo küla	59.52	25.58
Pärsti	58.42	25.52
Põlvamaa	58.12	27.22
Pöide	58.52	23.06
Raikküla	58.94	24.76
Rakke [Lääne-Virumaa]	59	26.24
Randivälja	58.48	24.8
Revalia	27.7	81.84
Riisipere	59.12	24.32
Rupsi küla	58.58	27.14
Räestu [Võrumaa]	57.84	27.02
Rõngu [Tartumaa]	58.14	26.24
Rødovre	55.68	12.44
Saarijärvi	62.7	25.24
Saltsjöbaden	59.28	18.3
San Diego	32.72	-117.16
Sangaste	57.92	26.32
Sargvere	58.88	25.72
Saverna (Põlvamaa)	58.08	26.72
Siimusti (Jõgevamaa)	58.72	26.36
Singapore	1.28	103.84
Skara	58.4	13.44
Soodla	59.38	25.38
Szentendre	47.68	19.08
Särevere	58.8	25.44
Sääritsa	58.76	27.06
Sürgavere	58.48	25.48
Sürgavere (Viljandimaa)	58.48	25.52
Taipei	25.04	121.52
Tartoh	28.92	63.08
Tarvastu [Viljandimaa]	58.22	25.92
Te Haarlem	52.4	4.64
Terpatâ	24.88	87.62
Tila	17.3	-92.44
Tiskre	59.4	24.58
Tiskre küla	59.42	24.58
Tomsk	56.5	84.98
Tootsi	58.58	24.78
Tumba	59.2	17.82
Türil	-34.72	-56.2
Türisalu	59.4	24.32
Urvaste [Võrumaa]	57.92	26.58
Uue-Kariste	58.24	25.32
Vaeküla	59.34	26.52
Varstu	57.64	26.66
Vehendi	58.24	26.14
Viinistu [Harjumaa]	59.64	25.74
Viiratsi	58.36	25.64
Vinni (Lääne-Virumaa)	59.28	26.44
Växjö	56.88	14.8
Võduvere [Lääne-Virumaa]	59.32	26.12
Watford	51.66	-0.4
Wedemark-Elze	52.58	9.74
Weissenhorn	48.32	10.16
Willimantic (Conn.)	41.72	-72.2
Wismar	53.88	11.44
Zoetermeer	52.06	4.5
Zu Revall	16.38	78.26
Łódź	51.78	19.46
Abruka	58.18	22.52
Alten Stettin	50.5	10.14
Altenstadt	50.28	8.94
Aluksne	57.42	27.04
Alunda	60.08	18.08
Ankara	39.92	32.84
Anna (Järvamaa)	59	25.6
Arula	58.04	26.36
Aruvalla küla (Rae vald)	59.24	25.04
Avignon	43.96	4.8
Avispea	59.12	26.36
Bad Homburg	50.22	8.62
Bingley	53.84	-1.84
Boca Raton	26.36	-80.08
Bonn-Bad Godesberg	50.68	7.16
Boulder	40	-105.28
Brackenheim	49.08	9.08
Buenos Aires	-34.62	-58.38
Burnaby (Kanada)	49.24	-122.98
Buxheim (Allgäu)	48	10.14
Calgary	51.04	-114.1
Cambridge (Mass.)	42.36	-71.12
Canberra	-35.28	149.12
Caracas	10.5	-66.88
Carmichael, California	38.62	-121.32
Casani	40.58	21.24
Catthorpe Manor (Suurbritannia)	52.4	-1.18
Charkow	49.98	36.24
Chişinău	47	28.86
Crozon	48.24	-4.5
Darlinghurst	-33.88	151.22
Deventer	52.26	6.16
Dortmund	51.52	7.48
Downwood	51.48	-1.24
Eberstadt	49.18	9.32
Edinburgh	55.96	-3.2
Edmonton	53.56	-113.48
Ehstland	-30.52	29.82
Eisenach	50.98	10.32
Eisma	59.56	26.3
Esku	58.64	25.88
Esslingen	48.74	9.3
Faloppio	45.82	8.96
Falun	60.6	15.64
Firenze	43.78	11.24
Frederick	39.4	-77.4
Frederiksberg	55.68	12.52
Gdynia	54.52	18.54
Genéve	46.2	6.14
Geretsried	47.86	11.5
Gimo	-19.06	33.28
Greve, Taani	55.58	12.26
Guilford, Connecticut	41.28	-72.68
Gävle	60.68	17.14
Götegorg	57.7	12
Haeska [Läänemaa]	58.8	23.68
Halis Saxonum	46.08	11.52
Haljala (Lääne-Virumaa)	59.44	26.26
Hamina	60.58	27.2
Hanau	50.14	8.9
Handimiku (Võrumaa)	57.74	26.88
Hanila [Läänemaa]	58.98	23.88
Harju (Hiiumaa)	58.74	22.64
Harju-Risti	59.22	24.02
Heiligenbeil Ostpr	54.46	19.94
Herjava	58.96	23.62
Herrljunga	58.08	13.02
Hillerød	55.92	12.3
Hoboken (N.J.)	40.74	-74.02
Huddinge (Rootsi)	59.24	17.98
Hudiksvall	61.72	17.12
Hulja (Lääne-Virumaa)	59.36	26.22
Hurmi (Põlvamaa)	58	26.86
Hyvinkää	60.64	24.88
Höganäs	56.2	12.56
Ihasalu	59.52	25.2
Ingolstadt	48.78	11.42
Janakkala	60.9	24.6
Jerevan	40.18	44.5
Jászberény	47.5	19.92
Järfalla	59.44	17.82
Järvamaa	58.88	25.5
Järvselja	58.28	27.3
Jõeääre (Raplamaa)	58.82	24.44
Jõgeva vald, Lõpe-Reimani	58.82	26.46
Jõgewal	31.08	76.32
Jõiste	58.6	22.8
Jõõpre	58.48	24.32
Jürjev	44.94	14.92
Kaagna	58	26.84
Kaarma [Saare maakond]	58.36	22.56
Kaaruka küla [Järvamaa]	59	25.74
Kaevere küla (Läänemaa)	58.84	23.58
Kaitsemõisa	58.58	26.8
Kalana [Hiiumaa]	58.92	22.08
Kambja [Tartumaa	58.24	26.7
Kammeri	58.18	26.64
Karlshamn	56.18	14.86
Karlstad	59.38	13.5
Kehra (Harjumaa)	59.32	25.32
Keibu (Harjumaa)	59.22	23.76
Keila linn	59.32	24.42
Kemiö	60.16	22.74
Kerava	60.4	25.1
Kernu	59.14	24.5
Kielce	50.86	20.62
Kihnu (Pärnu maakond)	58.14	23.98
Kiidjärve [Põlvamaa]	58.14	27.04
Kiltsi [Lääne-Virumaa]	59.1	26.18
Kirna	58.84	25.46
Kolepi	57.78	27.06
Kolgaküla	59.52	25.72
Koppelmaa (Saue vald)	59.26	24.54
Kostivere	59.42	25.1
Krems	48.4	15.6
Kroonlinn	60	29.76
Krundiküla	58.04	24.52
Kurepalu	58.32	26.84
Kurtna	59.22	24.72
Kuusalu (Harjumaa)	59.48	25.44
Kämara	58.44	26.52
Kärkna	58.48	26.62
Kääpa küla	58.68	26.82
Käärdi (Tartumaa)	58.2	26.4
Kållered	57.6	12.08
Kõrgessaare (Hiiumaa)	58.98	22.46
La Laguna	28.48	-16.32
Laadjala (Saaremaa)	58.32	22.54
Laatre (Valgamaa)	57.86	26.26
Laekvere	59.08	26.56
Laeva	58.48	26.36
Lahr	48.34	7.88
Laiaküla (Harjumaa)	59.48	24.92
Laimjala	58.42	23.02
Laitse [Harjumaa]	59.22	24.38
Lakewood (New Jersey)	40.08	-74.2
Langensalza	51.12	10.64
Laupa	58.78	25.36
Lavassaare	58.52	24.4
Leppneeme (Harjumaa)	59.54	24.88
Loudon (Tenn.)	35.72	-84.32
Luleå	65.58	22.16
Lähte	58.48	26.68
Lähte [Tartumaa]	58.5	26.68
Läsna (Lääne-Virumaa)	59.44	25.9
Lääne-Virumaa	59.3	26.32
Lüllemäe	57.76	26.38
Mallavere (Harjumaa)	59.24	25.16
Manila	14.6	120.98
Mantova	45.16	10.8
Markaryd	56.46	13.6
Martin	49.06	18.92
Meegaste	58.04	26.32
Meine	52.38	10.52
Meiuste	58.6	22.6
Memmingen	47.98	10.18
Menlo Park (Calif.)	37.44	-122.18
Merseburg	51.36	12
Metsla (Järvamaa)	59	26.02
Michelstadt	49.68	9
Mihkli	58.6	24.12
Mt. Pleasant (Mich.)	43.6	-84.76
Muraste [Harjumaa]	59.44	24.44
Mustang (Okla)	35.38	-97.72
Mällikvere	58.68	25.96
Mölndal (Rootsi)	57.64	12.02
Nairobi	-1.28	36.82
Nashville	36.18	-86.78
Naumburg	51.16	11.82
Norrtälje	59.76	18.7
Norsborg	59.24	17.82
Northampton	52.24	-0.88
Nursi [Võrumaa]	57.78	26.88
Nõva [Läänemaa]	59.22	23.68
Odessa	46.5	30.74
Ohtu (Harjumaa)	59.28	24.38
Oisu [Järvamaa]	58.76	25.56
Omski	55	73.36
Orissaare [Saare maakond]	58.56	23.08
Ostfildern	48.72	9.26
Otalampi	60.4	24.48
Paikuse [Pärnumaa]	58.36	24.62
Paisley (Šotimaa)	55.84	-4.44
Palade (Hiiumaa)	58.98	22.84
Palmse	59.52	25.94
Palo Alto	37.44	-122.14
Parksepa	57.9	26.98
Paterson	40.92	-74.18
Pauastvere (Jõgevamaa)	58.68	26.02
Perm	58	56.24
Peterhof	59.88	29.9
Picton (Austraalia)	-34.18	150.62
Pihkva	57.8	28.36
Piistaoja	58.54	24.9
Piitsaküla	57.8	26.62
Pittsburgh	40.44	-80
Pleskow	47.7	-2.82
Pringi (Harjumaa)	59.52	24.8
Prospect Heights (Ill.)	42.1	-87.94
Puhja [Tartumaa]	58.34	26.32
Puide	57.94	25.96
Puka [Valgamaa]	58.06	26.24
Puuri	58.04	27.02
Päinurme	58.8	25.94
Päite	59.4	27.7
Pärsti [Viljandimaa]	58.42	25.54
Põvvatu	58.36	26.84
Pühajärve	58.04	26.44
Pühaste	58.1	26.14
Püssi	59.36	27.04
Rae (Harjumaa)	59.4	24.88
Raela	58.96	24.76
Raikküla [Raplamaa]	58.94	24.74
Reinu (Pärnumaa)	58.02	24.74
Rekkem [Madalmaad]	50.78	3.16
Reutlingen	48.5	9.2
Reval :[s.n.]	25.54	80.54
Rewal	54.08	15.02
Reykjavik	64.14	-21.9
Rihga	24.08	81.1
Rija-linan	6.38	124.98
Rijan	0.58	123.1
Rijswijk	52.04	4.32
Ristiküla	59.18	26.58
Rodez	44.36	2.56
Roobaka	58.56	22.78
Rostochi[i]	52.02	113.52
Rudolstadt	50.72	11.34
Ruien	50.78	3.5
Ruu	59.44	25.2
Ruu küla	59.44	25.24
Räestu	54.22	23.62
Saare (Läänemaa)	59.02	23.56
Sagadi [Lääne-Virumaa]	59.54	26.04
Saia (Saaremaa)	58.32	22.44
Saksamaal	51.12	10.4
Salme	58.16	22.26
San Jose (Calif.)	37.34	-121.9
Sandhem	57.98	13.76
Sankt Augustin	50.78	7.2
Santa Barbara (Kalifornia)	34.42	-119.7
Saula (Harjumaa)	59.22	25.04
Sawtry	52.44	-0.28
Seljametsa	58.36	24.68
Siegen	50.86	8.02
Siimusti	58.72	26.34
Silver Spring (Maryland)	39	-77.02
Simisti	58.56	23.32
Sinimäe	59.36	27.86
Sinimäe [Ida-Virumaa]	59.38	27.86
Sinzig	50.54	7.24
Sipe (Tartumaa)	58.24	26.82
Siuro	61.48	23.34
Skellefteå	64.76	20.96
Soitsjärve	58.56	26.68
Sopot	54.44	18.56
St. Catharines	43.18	-79.24
St.Louis, Missouri	38.64	-90.2
Stanford (Calif.)	37.42	-122.18
Strängnäs	59.38	17.04
Suislepa	58.16	25.96
Surju	58.24	24.72
Svenljunga	57.5	13.12
São Paulo	-23.56	-46.64
Sånga-Säby	59.36	17.64
Sõmera	58.3	22.26
Sõmeru (Lääne-Virumaa)	59.36	26.44
Taebla alevik	58.96	23.74
Taevaskoja	58.1	27.04
Taibei (Taiwan)	25.04	121.56
Talsingi	18.96	83.94
Tammevaldma (Tartumaa)	58.32	27.02
Tammiste	58.4	24.58
Tel Aviv	32.08	34.78
Tempa (Hiiumaa)	58.92	22.92
Thirlmere	-34.2	150.56
Toijala	61	25.12
Torgu	57.98	22.08
Toronto (Ont.)	43.64	-79.38
Toruń	53	18.6
Tōkyō	35.68	139.64
Tristfer	47.12	11.84
Tsirguliina [Valgamaa]	57.86	26.2
Tuhala	59.22	24.96
Turnhout	51.32	4.94
Tuula	59.28	24.44
Täby	59.44	18.06
Tääksi (Viljandimaa)	58.52	25.64
Tõstamaa [Pärnumaa]	58.34	23.98
Türi-Alliku	58.82	25.44
Uddevalla	58.36	11.94
Udine	46.06	13.24
Uuemõisa [Läänemaa]	58.96	23.58
Uulus [Pärnumaa	58.28	24.56
Vahi (Tartumaa)	58.42	26.72
Vaiatu	58.82	26.66
Vaimõisa	58.98	24.46
Valgjärve	58.08	26.64
Valguta	58.18	26.2
Vana-Kariste	58.18	25.28
Vana-Saaluse (Võrumaa)	57.72	27.24
Vancouver (B.C.)	49.28	-123.12
Vara (Tartumaa)	58.52	26.88
Varbla	58.42	23.76
Varbola	59.04	24.44
Vastemõisa	58.44	25.44
Vatla	58.56	23.74
Veltsa	58.6	24.06
Veriora	58	27.36
Vienna, VA, USA	38.9	-77.26
Vihasoo	59.56	25.8
Vihula	59.54	26.16
Viidumäe (Saaremaa)	58.32	22.08
Viljandimaa	58.28	25.58
Villevere	58.64	25.48
Virve küla	59.6	25.56
Vodja	58.94	25.7
Voka [Ida-Virumaa]	59.4	27.56
Voore [Jõgevamaa]	58.72	26.76
Vädra	21.6	71.12
Vällingby	59.36	17.88
Väänla (Läänemaa)	58.98	23.82
Väätsa	58.88	25.44
Võnnu [Tartumaa]	58.28	27.04
Võsupere	59.5	25.96
Waddil	-34.6	146
Waterloo (Ont.)	43.46	-80.52
Wenden	50.96	7.88
West Vancouver	49.36	-123.18
West Vancouver (B.C.)	49.32	-123.16
Wittebergae	-30.7	27.36
Wolfenbüttel	52.16	10.54
Zug	47.18	8.52
[Burbank] (California)	34.18	-118.3
Ängelholm	56.24	12.86
Ääsmäe	59.24	24.52
Öjersjö	57.7	12.14
Šveits	46.82	8.24
Aadami (Kastre vald)	58.24	26.86
Aadmal [Hiiumaa]	58.92	22.6
Aakre	58.1	26.2
Aalborg	57.04	9.92
Aarau	47.38	8.04
Aaspere	59.42	26.12
Aaviku	59.34	24.92
Aaviku küla	59.32	24.9
Aberdeen	57.14	-2.1
Abertawe	51.62	-3.94
Abington	40.12	-75.12
Aboæ	5.3	-1.12
Absecon	39.44	-74.5
Adra küla (Harku vald)	59.38	24.36
Aegna	59.58	24.76
Agen	44.2	0.62
Ahrensburg	53.68	10.24
Aichach	48.46	11.14
Aizpute	56.72	21.6
Al-Qāhirah	30.04	31.24
Alavere	59.24	25.32
Albany	42.64	-73.76
Albolote (Granada)	37.22	-3.64
Allikjärve küla	59.02	25.68
Alnarp	55.66	13.08
Altenburg	51	12.44
Altenstadt/Oberbayern	47.82	10.86
Altnurga [Jõgevamaa]	58.54	26.36
Amberg	49.44	11.86
Ames (Iowa)	42.04	-93.62
Amritapuri, Kerala, India	9.1	76.48
Andover (Conn.)	41.74	-72.38
Annandale-on-Hudson, N.Y.	42.02	-73.9
Ao küla (Lääne-Virumaa)	59	26.2
Apeldoorn	52.2	5.96
Ardu	59.1	25.38
Ardu [Harjumaa]	59.1	25.36
Arendal	58.46	8.76
Arkna	59.4	26.36
Arkna küla (Lääne-Virumaa)	59.4	26.38
Arlington	32.74	-97.12
Arnsberg	51.38	8.08
Aschaffenburg	49.98	9.16
Aseri [Ida-Virumaa	59.44	26.84
Ashland (Oreg.)	42.18	-122.7
Askim (Rootsi)	57.62	11.96
Assikvere	58.72	26.98
Aste [Saare maakond]	58.36	22.44
Atglen (Pa.)	39.96	-75.98
Atlanta	33.76	-84.4
Audru alevik	58.4	24.32
Aurich	53.48	7.48
Austin	30.26	-97.74
Avanduse-Hirla	59.06	26.42
Backhofenberg	52.28	13.12
Bad Orb [Saksamaa]	50.22	9.36
Bad Salzuflen	52.08	8.76
Bad Soden-Salmünster	50.28	9.36
Badacsonytomaj	46.82	17.52
Baku	40.38	49.88
Bamberg	49.9	10.9
Bannockburn (Ill.) [USA]	42.18	-87.88
Banská Bystrica	48.74	19.16
Bargteheide	53.72	10.26
Barth	54.36	12.74
Basingstoke (Hampshire)	51.28	-1.08
Bath	51.38	-2.36
Bayreuth	49.96	11.58
Beacon, N.Y	41.5	-73.98
Beauport	46.86	-71.2
Beijing	39.9	116.4
Belgrave (Victoria)	-37.9	145.36
Beltsville	39.04	-76.9
Bennington	42.88	-73.2
Berlin-Friedenau	52.48	13.34
Berlin-Grunewald	52.48	13.26
Berlin-Zehlendorf	52.42	13.24
Beromünster	47.22	8.18
Berth	-37.82	144.94
Bethesda (Md.)	38.98	-77.1
Beverly Hills	34.06	-118.4
Bialystok	53.14	23.16
Bicske	47.48	18.64
Bielefeld/Brackwede	52	8.5
Bietigheim-Bissingen	48.94	9.12
Bietlot	50.44	4.5
Bihać	44.82	15.86
Binghamton (NY)	42.1	-75.92
Bleicherode am Harz	51.44	10.58
Blieskastel	49.24	7.24
Boda kyrkby	61	15.22
Bordeaux	44.84	-0.58
Bornholm	55.16	14.86
Bougival [France]	48.86	2.14
Bournemouth	50.72	-1.88
Bovenden bei Göttingen	51.6	9.92
Bowling Green (Ohio)	41.36	-83.64
Boxholm	58.2	15.04
Brabrand	56.16	10.1
Brampton	43.68	-79.76
Breda	51.6	4.78
Bregenz	47.5	9.76
Bremerhaven	53.54	8.6
Brighton	50.82	-0.14
Brisbane	-27.46	153.02
Bristol	51.46	-2.6
Brooklyn, NY	40.68	-73.94
Brunsbergae	54.38	19.82
Böhlau	0.86	97.74
Bühl/Baden	48.7	8.14
Büsum	54.14	8.86
Calcutta	22.56	88.36
Cambridge [etc.	52.2	0.12
Cambridgeshire	52.28	-0.1
Cape Town	-33.94	18.42
Cardiff [United Kingdom]	51.48	-3.16
Cardigan	52.08	-4.66
Cary (NC)	35.78	-78.78
Catania	37.5	15.06
Catena di Villorba	45.72	12.26
Chadstone (Victoria)	-37.88	145.1
Chalfont St. Peter	51.6	-0.56
Chester Springs	40.08	-75.62
Chicago (Ill.)	41.88	-87.62
Chichester, UK	50.84	-0.78
Christchurch	-43.54	172.62
Cincinnati [USA]	39.1	-84.52
Clagenfurth	46.64	14.32
Clermont-Ferrand	45.78	3.08
Cobourg (Ont.)	43.96	-78.18
Coburg	50.26	10.96
Cochrane (Wis.)	44.22	-91.84
College Park (Md.)	39	-76.94
College Station (Tex.)	30.64	-96.32
Columbia, Connecticut	41.7	-72.3
Commack	40.84	-73.3
Cork, Ireland	51.9	-8.48
Cornelius (N.C.)	35.48	-80.86
Costa Mesa [USA]	33.66	-117.9
Coventry	52.4	-1.52
Croydon	51.38	-0.1
Cuneo	44.38	7.54
Curitiba	-25.44	-49.28
Cöln	52.28	104.3
Cöthen (Anhalt)	51.76	11.98
Dallas (Tex.)	32.78	-96.8
Danderyd	59.4	18.04
Dantisci	56.18	37
Darlington	54.52	-1.56
DeKalb	41.94	-88.76
Denver	39.74	-104.98
Detroit	42.32	-83.04
Dettelbach	49.8	10.18
Dijon	47.32	5.02
Dillenburg	50.74	8.28
Dinglingen	48.36	7.84
Djupadal	55.58	12.96
Djursholm	59.4	18.08
Dobbs Ferry (New York)	41	-73.88
Don Mills	43.74	-79.34
Duaci	36.96	30.64
Duisburg	51.42	6.76
Duluth	46.78	-92.12
Durham (N.C.)	36	-78.9
EU	50.84	4.38
East Roseville	38.76	-121.22
Eastleigh	50.96	-1.36
Ebenhausen bei München	47.98	11.44
Edise (Ida-Virumaa)	59.36	27.36
Eerikvere	58.68	26.64
Eesti [p.o. Kose (Harjumaa)]	59.18	25.18
Egilsstöðum	65.26	-14.4
Einbi	59	23.46
Eistvere küla	58.68	25.76
Ellamaa [Harjumaa	59.04	24.18
Emmaste	58.7	22.62
Emmaste (Hiiumaa)	58.7	22.58
Emmaste osavald	58.72	22.6
Emmern	52.04	9.38
Emsdetten (Westf.)	52.18	7.52
Emu Plains (New South Wales)	-33.76	150.64
Enges	47.06	7
Englewood Cliffs (N.J.)	40.88	-73.96
Enumclaw (Wash.)	47.2	-121.98
Erala	58.48	26.7
Erastvere	57.98	26.78
Esbjerg	55.48	8.44
Esbjerg [Denmark]	55.48	8.46
Eugene (Or.)	44.04	-123.1
Eutin	54.14	10.6
Evanston	42.04	-87.68
Farmington, Conn	41.74	-72.8
Farnham	51.2	-0.8
Fayetteville, NY	43.04	-76
Fergus Falls	46.28	-96.08
Footscray	-37.8	144.9
Forbushof	40.78	-92.88
Fort Mitchell	39.04	-84.56
Fort Wayne (USA)	41.08	-85.14
Franeker	53.2	5.54
Frankenthal	49.54	8.36
Frankfurt (Oder)	52.36	14.56
Fredericia [Taani]	55.58	9.76
Fresno, Kalifornia	36.74	-119.8
Freudenstadt	48.46	8.4
Fribourg	46.8	7.16
Friedewald-Dresden	51.14	13.64
Friedrichshafen [Saksamaa]	47.66	9.46
Fujimi	35.86	139.56
Fulham	51.48	-0.2
Færna	59.78	15.86
Gainesville	29.64	-82.32
Gamlingay	52.16	-0.18
Gand	51.04	3.72
Garden City (N.Y.)	40.72	-73.62
Gargždai	55.72	21.4
Garmisch-Partenkirchen	47.5	11.1
Gatineau	45.48	-75.7
Gatschina	59.58	30.14
Gebweiler	47.92	7.2
Genova	44.4	8.94
Germantown	39.18	-77.26
Germersheim	49.22	8.36
Gerpinnes	50.34	4.54
Giessen [Deutschland]	50.58	8.68
Glebe (N.S.W.)	-33.88	151.2
Glendale, Isle of Skye [United Kingdom]	57.44	-6.7
Glesborg	56.48	10.72
Glinde	53.54	10.2
Gliwice	50.3	18.68
Glücksburg /Ostsee	54.82	9.56
Gnadau	51.98	11.78
Goettingae	48.38	16.36
Goolwa	-35.5	138.78
Greenwich (Conn.)	41.04	-73.62
Grodzisk Mazowiecki	52.1	20.62
Guangzhou	23.12	113.24
Győr	47.68	17.64
Göppingen	48.7	9.64
Güstrow	53.8	12.18
Haarlem	52.38	4.64
Haavasalu	14.72	75.78
Habana	23.12	-82.38
Hageri [Raplamaa]	59.16	24.68
Hagudi [Raplamaa]	59.04	24.84
Halifax [United Kingdom]	53.72	-1.86
Halinga [Pärnumaa]	58.6	24.54
Halle im Magdeburgischen	52.12	11.62
Halliste (Viljandimaa)	58.16	25.44
Halmstad	56.68	12.86
Hamburg-Hamm	53.56	10.06
Hameln	52.1	9.36
Hamilton [Kanada]	43.26	-79.88
Hampton	37.04	-76.36
Hanko	59.82	22.96
Hannover-Dören	52.34	9.76
Hara küla	59.56	25.62
Harderovici	44.46	18.24
Harmondsworth	51.48	-0.48
Harrisburg (Pa.)	40.28	-76.88
Hechingen	48.36	8.96
Heidenheim	48.68	10.16
Heimtali (Viljandimaa)	58.32	25.5
Heinaste	57.86	24.36
Heinävesi	62.42	28.6
Hellenurme	58.14	26.38
Helsingør	56.04	12.6
Hemel Hempstead	51.76	-0.44
Hengelo	52.28	6.8
Henley Beach	-34.9	138.5
Herne	51.54	7.24
Hernösand	62.64	17.94
Hexham	54.98	-2.1
Hillsborough (New Jersey)	40.5	-74.64
Hillsdale, NY	42.18	-73.52
Hindås	57.7	12.44
Holdre	57.94	25.74
Hollfeld	49.94	11.28
Holte (Danmark)	55.82	12.48
Holvandi (Põlvamaa)	58.06	27.22
Holyoke	42.2	-72.62
Hong Kong	22.28	114.18
Horma	57.88	26.68
Horn bei Hamburg	53.56	10.08
Horneburg	53.52	9.58
Houston	29.76	-95.36
Houston (USA)	29.76	-95.38
Hullo	59	23.24
Hundisilma [talu, Eru küla]	59.56	25.88
Hurda [Võrumaa]	57.72	26.82
Hyderabad	17.38	78.46
Häädemeeste [Pärnumaa]	58.08	24.48
Häätaru	58.12	26.88
Höör	55.92	13.54
Hørsholm	55.88	12.5
Iasi	47.18	27.6
Ibidem [Reval]	43.46	-3.54
Ihamaru	58.06	26.9
Ikla (Pärnumaa)	57.88	24.42
Ilumäe	59.52	25.88
Ingliste küla	59	24.96
Innsbruck-Mühlau	47.28	11.4
Iowa City, IA	41.66	-91.52
Irboska	57.72	27.86
Irvine (Calif.)	33.68	-117.82
Ithaca (N.Y.)	42.44	-76.5
Itzehoe	53.92	9.5
Iurievi	51.28	34.1
Ivaski (Viljandimaa)	58.42	25.36
Jackson	32.3	-90.18
Jackson (New Jersey)	40.1	-74.36
Jakobstadt	56.5	25.86
Jaroslavl	57.64	39.86
Jaén	37.78	-3.8
Jefferson, North Carolina	36.42	-81.48
Jenae	35.72	129.28
Joaveski küla	59.5	25.82
Johannesburg	-26.2	28.04
Jonsered	57.76	12.18
Jälevere	58.6	25.4
Jämejala (Viljandimaa)	58.38	25.58
Järiste küla	58.28	26.56
Järtsaare	58.56	25.82
Järva-Madise [Järvamaa	59.12	25.68
Järvere (Võrumaa)	57.84	26.86
Jõelähtme (Harjumaa)	59.44	25.12
Jõeääre (Pärnumaa)	58.74	24.1
Jõhvi (Ida-Virumaa)	59.36	27.4
Jõulumäe	58.22	24.52
Jönköping	57.78	14.16
Jüchen	51.1	6.5
Kaagna küla	58	26.82
Kaagvere (Põlvamaa)	58	26.6
Kaali	58.36	22.68
Kaarepere	58.66	26.54
Kaarepere (Jõgevamaa)	58.66	26.52
Kaasiku küla	59.2	24.32
Kaasikvälja	59.42	27.3
Kablaküla	58.6	26.06
Kadrina vald	59.38	26.08
Kadrina-Loobu	59.48	25.88
Kaevere	58.84	23.6
Kahtla	58.4	23.02
Kahula [Ida-Virumaa]	59.32	27.32
Kairo	30.06	31.24
Kaiserslautern	49.44	7.76
Kaisma	58.68	24.78
Kakumetsa	58.38	26.84
Kalesi (Harjumaa)	59.36	25.12
Kalinal	21.78	86.92
Kallemäe	58.36	22.9
Kalmar	56.66	16.36
Kalme (Tartumaa)	58.2	26.36
Kaluga	54.52	36.28
Kamari [Jõgeva maakond]	58.6	26
Kanaküla	58.24	25.12
Kanavere küla	59.18	25.08
Kangasala	61.46	24.08
Kangasala [Soome]	61.46	24.06
Kangsti	57.68	26.74
Kannuküla (Viljandimaa)	58.14	25.78
Kapu	58.98	26.04
Karala (Saaremaa)	58.26	21.92
Karhula	60.52	26.94
Karilatsi (Põlvamaa)	58.12	26.92
Karitsa ([Raplamaa)	59	25.04
Karja	58.52	22.7
Karjamaa [Tallinn]	59.44	24.72
Karksi (Viljandimaa)	58.12	25.6
Karlskrona	56.16	15.6
Kasispea	59.6	25.76
Kassari [Hiiumaa]	58.8	22.82
Kassema	58.64	26.74
Kassinurme [Jõgevamaa]	58.68	26.44
Kastre	58.36	27.08
Katrineholm	59	16.22
Kauda (Tartumaa)	58.48	26.86
Kaukvere (Lääne-Virumaa)	59.18	26.92
Kaustinen	63.56	23.68
Keava	58.96	24.9
Kecskemét	46.9	19.68
Kempele	64.9	25.5
Kempen/Allgäu	47.72	10.32
Kent Town	-34.92	138.62
Kherson	46.64	32.62
Kibworth Beauchamp	52.54	-1
Kiduspe	58.88	22.24
Kiduspe [Hiiumaa]	58.9	22.26
Kiideva	58.78	23.56
Kiikla küla	59.28	27.2
Kiiu	59.44	25.38
Kildu [Viljandimaa]	58.46	25.4
Kiloni[i]	52.24	-0.9
Kirchhain	50.82	8.92
Kirchzarten-Zarten	47.98	7.94
Kirderanna	58.62	22.88
Kirivere	58.64	25.7
Kirmsi (Põlvamaa)	58.04	27.4
Kista (Sweden)	59.4	17.96
Kivijärve	58.76	26.56
Klagenfurt	46.62	14.32
Kloogaranna (Harjumaa)	59.34	24.24
Kodasema küla	59	25.78
Kodavere	58.68	27.14
Kodila - Metsküla	59.04	24.72
Kodila [Raplamaa]	59.04	24.64
Koela (Läänemaa)	58.98	23.74
Koeru (Järvamaa)	58.96	26.02
Kohila (Raplamaa)	59.18	24.76
Kohta-Järve	59.4	27.28
Kohtla-Nõmme [Ida-Virumaa]	59.36	27.2
Koigu	57.98	26.56
Koigu (Võrumaa)	57.94	26.54
Koikküla (Valgamaa)	57.68	26.28
Koima	58.6	24.22
Koiola	58	27.04
Koitjärve	59.4	25.62
Kolga (Harjumaa	59.48	25.64
Kolkja (Tartumaa)	58.56	27.22
Koloreino (Võrumaa)	57.8	27.14
Konguta	58.22	26.28
Konju	59.4	27.62
Koogi (Tartu vald)	58.58	26.48
Kookla	58.44	25.54
Kooraste	57.98	26.64
Koper	45.56	13.74
Kose (Võrumaa)	57.8	27.04
Kottgeisering	48.12	11.14
Krei küla (Kose vald)	59.22	25.12
Kristinehamn	59.32	14.12
Krootuse	58.08	26.84
Krylbo	60.14	16.22
Królewiec	54.72	20.52
Kuhjavere [Viljandimaa]	58.52	25.74
Kuijõe	59.1	24.04
Kuijõe küla	59.12	24.04
Kukruse	59.4	27.36
Kuku	59.08	24.78
Kuldre (Võrumaa)	57.9	26.48
Kulla (Viljandimaa)	58.16	25.42
Kullamaa [(Läänemaa)	58.88	24.06
Kulmbach	50.1	11.44
Kulna [Harjumaa]	59.3	24.36
Kumma [Raplamaa]	58.96	24.82
Kuningvere	58.64	27.1
Kuremaal	58.72	26.54
Kuutsi	57.6	26.56
Kyoto	35.02	135.76
Käesla	58.28	22.2
Kähri (Põlvamaa)	58.02	26.96
Käsmu [Lääne-Virumaa]	59.6	25.9
Käsukonna (Järvamaa)	58.8	25.76
Kääpa (Võrumaa)	57.86	27.12
Kõinastu	58.64	23.02
Kõmmaste (Harjumaa)	59.2	24.06
Kõrveküla [Tartumaa]	58.42	26.76
Köln-Rodenkirchen	50.88	7
Königsbrück	51.26	13.92
Königstein in Taunus	50.22	8.42
Köningsberg	-27.76	29.78
Külitse	58.32	26.62
La Neuville sur Essonne	48.18	2.38
Laadi	58.28	24.6
Laguja	58.16	26.44
Lahavere	58.74	26.14
Lahmuse	58.56	25.44
Lahr-Dinglingen	48.34	7.84
Laimjala (Saaremaa)	58.42	23
Lancaster (U.K.)	54.04	-2.8
Lancaster, Pa.	40.04	-76.32
Langerma (Pärnumaa)	58.66	24.44
Langley, B.C.	49.1	-122.66
Larsmo	63.76	22.76
Larvik	59.04	10.04
Lasva	57.86	27.18
Lasva [Võrumaa]	57.86	27.2
Lauka [Hiiu maakond]	58.96	22.54
Laupa [Järvamaa]	58.78	25.38
Lavassaare (Pärnumaa)	58.5	24.38
Layerthorpe	53.96	-1.08
Le Carteau-Cambresis	50.1	3.54
Lecce	40.36	18.18
Leeds	53.8	-1.56
Leevi	57.96	27.22
Lehetu	59.04	24.26
Lehmja (Harjumaa)	59.36	24.88
Lehtmetsa (Harju maakond)	59.32	25.36
Leicester (Suurbritannia)	52.64	-1.14
Leie	58.42	26.04
Leisi [Saare maakond]	58.58	22.68
Leisu	58.78	22.52
Lemmküla	59.2	26.26
Lempäälä	61.32	23.76
Leväsjoki	61.78	21.96
Liegnitz	51.2	16.16
Liettua	55.18	23.88
Liibavi	56.54	21.04
Liiva (Harjumaa)	59.16	25.16
Liivi	58.86	23.96
Limburg /Lahn	50.4	8.08
Lindanise	54.8	25.22
Lindesberg	59.6	15.22
Linnuse küla	58.58	23.18
Linte (Põlvamaa)	58.16	27.44
Linz	48.32	14.28
Lippstadt	51.68	8.34
Lisboa	38.72	-9.14
Liskeard	50.44	-4.46
Livani	56.36	26.18
Lobi	4.4	14.38
Logroño	42.46	-2.44
Lohusuu	58.94	27.04
Lohvka	56.4	31.88
London (Ont.)	42.98	-81.24
Los Altos (Cal.)	37.38	-122.1
Lossiküla (Valgamaa)	57.9	26.28
Loveland [USA]	40.4	-105.06
Loviisa	60.46	26.24
Ludza	56.54	27.72
Luoma	60.18	24.56
Lutike	58.14	26.56
Lutike [Valgamaa	58.14	26.58
Luzern	47.04	8.32
Lv́ov	49.84	24.04
Lygnern	57.48	12.34
Lähtse	59.28	24.84
Lätkalu	58.44	26.04
Lääneotsa	59.62	25.02
Maasi	58.58	23.04
MacDill Air Force Base (Calif.)	33.9	-117.26
Mackay (Queensland)	-21.14	149.2
Macomb (Mich.)	42.72	-82.82
Maestricht	50.84	5.7
Mahwah	41.1	-74.14
Maidenhead	51.52	-0.72
Maidla [Ida-Virumaa]	59.32	27.02
Majala	58.24	26.36
Malbork	54.04	19.04
Manchester	53.48	-2.24
Manchester [USA]	43	-71.44
Maramaa	58.44	26.68
Marbach am Neckar [Deutschland]	48.94	9.26
Marburg (Lahn)	50.8	8.76
Maribor	46.56	15.64
Mariehamn	60.1	19.94
Mariupol	47.1	37.54
Markham, Ontario	43.86	-79.32
Marl	51.66	7.1
Masala	-5.78	16.38
Massiaru	58	24.6
Matsalu (Läänemaa)	58.76	23.48
Matsalu küla	58.72	23.68
Mauer bei Wien	48.16	16.26
Maywood (Ill.)	41.88	-87.84
Medford, MA	42.42	-71.12
Meerkerk (Holland)	51.92	5
Meissen	51.16	13.48
Melle	52.2	8.34
Melle (Hannover)	52.38	9.74
Memphis, Tennessee	35.16	-90.04
Menasha, Wis.	44.2	-88.44
Meremõisa	59.4	24.26
Merivälja	59.48	24.84
Merrick (N.Y.)	40.66	-73.56
Metsakasti küla [Viimsi]	59.48	24.9
Metstaga	57.64	26.76
Metzingen	48.54	9.28
Miiduranna	59.5	24.82
Milford (Conn.)	41.22	-73.06
Milford (Ohio)	39.18	-84.3
Milton Keynes	52.04	-0.76
Mission	26.22	-98.32
Mississauga	43.58	-79.66
Misso [Võrumaa]	57.6	27.22
Missoula (Mont.)	46.86	-113.98
Moakow	52.04	19.4
Moka (Raplamaa)	58.88	24.5
Monaco	43.72	7.42
Monte Cremasco (Itaalia)	45.38	9.58
Montreuil-sous-Bois	48.86	2.44
Moorestown	39.96	-74.96
Muhu-Suurvald	58.58	23.26
Mullavere	58.6	26.56
Mundaring [Australia]	-31.9	116.18
Muratsi (Saaremaa)	58.24	22.6
Murru (Pärnumaa)	58.56	24.76
Mustja (Võrumaa)	57.9	26.84
Mustjala	58.46	22.24
Mustu	59.1	24.4
Mustvee (Jõgevamaa)	58.84	26.96
Málaga	36.72	-4.42
Mädapea	59.32	26.24
Mäeselja [Tartumaa]	58.32	26.34
Mäetaguse (Ida-Virumaa)	59.22	27.3
Mäksa	58.38	26.98
Mälivere	59.12	24.8
Mändjala	58.2	22.32
Mändjala (Saaremaa)	58.22	22.32
Männisalu (Põlvamaa)	58.02	27.4
Mänspe (Hiiumaa)	58.82	22.48
Mõisaküla (Viljandimaa)	58.1	25.18
Münchenstein [Schweiz]	47.52	7.62
Nabala	59.28	24.88
Naisteväljal	59.2	26.1
Naruski	57.98	27.1
Narva linn	59.32	28.08
Narva-Eesti	59.38	28.18
Nashville (Tennessee)	36.16	-86.78
Nastola	60.96	25.94
Neckargemünd	49.38	8.8
Neeme	59.52	25.16
Neeroetern	51.1	5.7
Neisse	50.46	17.32
Nela Park	41.54	-81.56
Neubeuern/Inn	47.78	12.14
Neudamm	52.74	14.7
Neuhausen-Stuttgart	48.68	9.28
Neustadt an der Aisch	49.58	10.6
Neutral Bay	-33.84	151.22
New Brunswick [(N.J.)]	40.5	-74.44
New Haven (Conn.)	41.32	-72.94
New Orleans	29.96	-90.08
New Rochelle (N. Y)	40.9	-73.78
Newark	40.74	-74.18
Newberry, SC	34.28	-81.62
Newport Beach (Calif.)	33.6	-117.88
Niesky	51.28	14.84
Niitvälja	59.32	24.32
Nissi [Harjumaa]	59.12	24.24
Noarootsi [Läänemaa]	59.1	23.6
Norrköping (Rootsi)	58.6	16.2
North Adelaide (South Australia)	-34.9	138.6
North Charleston, SC	32.88	-80
North Plympton (Australia)	-34.96	138.54
North Ryda (New South Wales)	-33.8	151.12
Northampton (Mass.)	42.32	-72.64
Novonikolajevsk	53.16	105.1
Nowo-Nikolajewsk	54.98	82.9
Nowosibirsk	55.04	82.94
Nurme	58.8	23.88
Nuutre (Viljandimaa)	58.52	25.48
Nõmme-Rahumäe [Tallinn	59.4	24.72
Nüpli küla	58.02	26.48
Oberhausen	51.48	6.86
Oessaare (Saaremaa)	58.34	22.88
Ogre	56.82	24.6
Oidrema	58.6	23.94
Old Saybrook	41.28	-72.38
Old Tappan (USA, New Jersey)	41	-74
Olsztyn	53.78	20.48
Olten	47.36	7.9
Omedu (Jõgevamaa)	58.78	27.02
Oomiste (Tartumaa)	58.2	26.54
Oonurme [Ida-Virumaa]	59.14	26.96
Oostkamp	51.16	3.22
Opladen	51.06	7
Orava	57.9	27.46
Orléans	47.9	1.9
Oropos Attikis [Kreeka]	38.3	23.76
Oru ([Ida-Virumaa)	59.36	27.56
Osimo	43.5	13.48
Otaniemi	60.18	24.82
Otsa	57.84	27.24
Ottawa (Ont.)	45.42	-75.7
Otterndorf (Niederelbe)	53.8	8.9
Oudova	58.74	27.82
Ozolnieki	56.68	23.78
Paadremaa	58.52	23.84
Pagari	59.26	27.36
Pahuvere	58.18	25.7
Paistu (Viljandimaa)	58.28	25.64
Pajupea	59.36	24.96
Pajusti	59.28	26.42
Palivere	58.98	23.9
Palupõhja (Tartumaa)	58.4	26.24
Pamma	58.5	22.62
Pangodi	58.2	26.58
Papsaare	58.4	24.4
Parksi	59.5	25.76
Parkville (Vic.)	-37.78	144.94
Parramatta	-33.82	151
Partille (Rootsi)	57.74	12.14
Patküla [Valgamaa]	57.98	25.9
Paunküla (Harjumaa)	59.16	25.32
Pearland (Texas)	29.56	-95.3
Pedase (Harjumaa)	59.26	23.98
Peetri [Järvamaa]	58.94	25.84
Penig	50.94	12.7
Penuja	58.06	25.38
Pest	47.4	19.36
Peterborough	52.58	-0.24
Pfaffenhofen/Ilm	48.54	11.5
Pforzheim	48.88	8.7
Philadelphia (Pa.)	39.96	-75.18
Pierrefonds (Quebec)	45.46	-73.88
Piira	59.32	26.38
Piirsalu	59.04	24.04
Piistaoja [Pärnumaa]	58.52	24.9
Pikavere [Pärnumaa]	58.58	24.18
Pikkjärve küla	58.64	26.56
Pilkengton	41.4	-81.62
Plön	54.16	10.42
Polli [Viljandimaa]	58.14	25.54
Pomáz	47.64	19.04
Porsa küla	58.24	25.88
Port Noarlunga South (Austr.)	-35.18	138.48
Port Sydney	45.22	-79.3
Port Townsend	48.12	-122.76
Porwoo	60.38	25.66
Praaze	55.92	21.12
Prange	58.04	26.2
Prangli (Harjumaa)	59.64	25.02
Prien/Chiemsee	47.86	12.36
Princeton	40.36	-74.66
Princeton (N. J.)	40.36	-74.68
Providence	41.82	-71.4
Puise	58.78	23.48
Pukamäe	59.16	24.76
Pullach bei München	48.06	11.52
Puna küla	58.34	25.32
Purila	59.08	24.84
Purtse	59.42	27.02
Purtsi	58.08	26.1
Päiksi	58.6	27.08
Pärispea [Harjumaa	59.64	25.72
Pärlijõe	57.68	26.88
Pärnjõe [Pärnumaa]	58.64	24.94
Päärna	49.58	18.12
Pécs	46.06	18.24
Põlgaste	57.98	26.88
Põlliku	58.96	25.18
Põlula [Lääne-Virumaa]	59.32	26.6
Põlvamaal	58.08	27.06
Pühalepa	58.88	22.96
Quedlingen	50.22	10.12
Raiste	57.92	26.94
Raja küla (Jõgevamaa)	58.82	26.9
Ramsgate	51.34	1.42
Rannamõisa	59.44	24.52
Raplamaa	58.84	24.74
Rasva (Võrumaa)	57.76	26.98
Raudna	58.36	25.46
Raudna [Viljandimaa]	58.34	25.48
Recht	50.32	6.04
Redwood City, California	37.48	-122.22
Refwel	18.74	99.12
Rehburg-Loccum	52.48	9.2
Reheselja (Hiiumaa)	58.72	22.54
Remagen-Oberwinter	50.62	7.2
Rennes	48.12	-1.66
Reopalu	58.88	25.52
Retla	58.76	25.6
Reykajvík	64.16	-21.94
Rezekne [Läti]	56.52	27.32
Rheinbach	50.64	6.96
Rheinbreitbach	50.62	7.24
Rian	3.6	116.8
Richmond (Victoria)	-37.82	145
Ridala vald	58.88	23.62
Riidaja	58.1	25.9
Riidaku küla	58.94	24.56
Riihimäki	60.74	24.78
Rija linnan	37.06	116.88
Rindal	63.06	9.22
Rinteln	52.2	9.08
Rio de Janeiro	-22.92	-43.18
Risti (Läänemaa)	59	24.04
Ristil	62.32	26.5
Ristipalo (Põlvamaa)	58.08	27.52
Riverside (Cal.)	33.98	-117.38
Rixensart	50.72	4.54
Riyadh	24.68	46.72
Rockville (Maryland)	39.08	-77.16
Rocky Harbour (N.L.)	49.6	-57.92
Rohuneeme (Harjumaa)	59.56	24.82
Romae ad S. Sabinae	41.88	12.48
Ronne	55.1	14.72
Roobe küla	57.98	25.96
Roosiku (Võrumaa)	57.76	26.72
Roosna	59.14	25.94
Rosenheim	47.86	12.12
Roskilde [Denmark]	55.64	12.1
Rottenburg am Neckar	48.48	8.94
Rotterdam	51.92	4.48
Rudkøbing	54.94	10.72
Russalka (Tallinn)	59.44	24.78
Russalu	59.02	24.38
Ruusa [Põlvamaa]	58.04	27.26
Ruusmäe	57.64	27.08
Rzeszów	50.04	22
Rõuge [Võrumaa]	57.72	26.92
Saarbrücken [Saksamaa]	49.24	7
Saaremetsa	58.44	23.12
Saatse	57.88	27.78
Sacramento	38.58	-121.48
Sadala (Jõgevamaa)	58.86	26.62
Saduküla	58.68	26.28
Saia	58.32	22.46
Saint-Malo	48.64	-2
Salinas(California)	36.68	-121.66
Salisburg	57.86	25.04
Salme [Saare maakond]	58.16	22.24
Salo	60.38	23.12
Saltsjö-Boo	59.32	18.28
Salutaguse [Järva maakond]	59	25.94
Sammaljoki	61.22	23.12
Sampzon	44.42	4.34
San Bernardino (CA)	34.12	-117.3
San Domenico	42.18	14.26
San Domenico di Fiesole	43.8	11.28
San Francisco,	37.78	-122.42
San Juan Capistrano (CA)	33.5	-117.66
Sandisuu	57.74	26.94
Sandomierz	50.68	21.76
Santa Ana (Ameerika Ühendriigid)	33.76	-117.88
Santa Monica (Cal.)	34.02	-118.48
Santiago de Chile	-33.46	-70.64
Santiago de Compostela	42.88	-8.56
Saru (Võrumaa)	57.6	26.54
Sarve	58.84	23.06
Saunja küla (Lääne-Nigula vald)	58.98	23.68
Savimäe	58.2	27.32
Saviranna	59.5	25.04
Scarborough	54.28	-0.4
Schaffhausen	47.7	8.64
Schlesswig	54.52	9.56
Schmalkalden	50.72	10.44
Schwarzenbeck	59.46	24.68
Sejny	54.12	23.36
Seltjarnarnes	64.16	-21.98
Seoul	37.56	126.98
Sewickley, Pennsylvania	40.54	-80.18
Sigaste	58.18	24.88
Sillaotsa (Tartumaa)	58.66	27.14
Sillapää	58.1	27.44
Sindi [Pärnumaa	58.4	24.64
Sirgu	58.36	26.92
Sirguvere	58.74	26.76
Skagen [Taani]	57.72	10.58
Skärholmen, Sweden	59.28	17.9
Sloatsburg, New York	41.16	-74.2
Soesaare (Põlvamaa)	58.06	27.12
Sofia	42.7	23.32
Soinaste [Tartumaa]	58.34	26.76
Solna (Rootsi)	59.36	18.02
Sommerville, Mass	42.38	-71.1
Soonlepa	58.84	23.02
Soontaga	58	26.08
Sortavala	61.72	30.72
South Croydon, Surrey	51.36	-0.1
St-Peeterburg	27.76	-82.64
St. Gallen	47.42	9.36
St. Ingbert	49.28	7.12
St. Katharinen	50.6	7.36
Starnberg	48	11.34
Stavanger	58.98	5.74
Steglitz	52.44	13.34
Stockport	53.4	-2.16
Stolberg a.H	58.38	7.76
Stollhamm	53.52	8.36
Strasshof	48.32	16.68
Stroud	51.76	-2.2
Sutlema	59.18	24.62
Sutlema (Raplamaa)	59.18	24.64
Suure-Kõpu	58.32	25.32
Suure-Lähtru [Läänemaa]	58.88	23.84
Suuremetsa	57.86	27.34
Suuremõisa	58.86	22.96
Suurpea	59.62	25.7
Svelvik [Norra]	59.6	10.4
Syracuse (N.Y.)	43.04	-76.16
Szeged	46.24	20.14
Szentendre [Ungari]	47.68	19.06
Sännä [Võrumaa]	57.74	26.78
Särgla	58.58	26.92
Sävedalen	57.72	12.08
Sääsküla (Järvamaa)	59.16	25.72
Sõru ots	50.64	85.82
Taagepera	58.02	25.7
Taagepera [(Valgamaa)	57.98	25.7
Taastrup	55.64	12.3
Taavetti	60.92	27.56
Tacoma (Wash.)	47.24	-122.44
Taheva	57.64	26.34
Takoma Park [USA]	38.98	-77
Taldykorgan [s.o. Taldõkorgan]	45.02	78.38
Tali [Pärnumaa]	58.06	24.76
Tallinn, Mustamäe	59.4	24.68
Talsinki	56.56	25.32
Tammemäe	59.32	24.68
Tammiku (Ida-Virumaa)	59.34	27.36
Tammiste [Pärnumaa]	58.38	24.6
Tammistu (Tartumaa)	58.44	26.94
Tamse [Saaremaa]	58.64	23.16
Tapa vald	59.24	26.04
Tarbja (Järvamaa)	58.94	25.6
Taritu [Saare maakond]	58.2	22.1
Tarragona	41.12	1.24
Tarset	55.22	-2.4
Tarto-Linan trükkitu nink müwwa Grentsiusse man	7.4	-7.56
Tartu linn	58.4	26.62
Tartus :[s.n.]	34.88	35.9
Taskent	41.26	69.22
Tehvandi (Valgamaa)	58.04	26.52
Temesvar	45.76	21.24
Tepelvälja	59.56	26.1
Thanh-Long	11.28	105.98
The Oaks, N.S.W	-34.08	150.56
Thessaloniki	40.64	22.94
Thun	46.76	7.62
Thunder Bay (Ont.)	48.38	-89.24
Tiduvere küla	58.8	24.32
Tiheda	58.8	26.96
Tihemetsa, Pärnumaa	58.14	25.04
Tiirimetsa	58.18	22.18
Tiitsa	57.58	26.54
Tilgu	57.76	26.9
Tindi (Võrumaa)	57.72	26.94
Tobolsk [i.e. Nordhausen]	51.5	10.78
Tohkri (Võru maakond)	57.8	27.16
Tolworth, Surrey	51.38	-0.28
Tooma [Jõgevamaa]	58.88	26.2
Torrance, Calif	33.84	-118.34
Torrazza Piemonte	45.22	7.98
Torshälla	59.42	16.46
Totnes	50.44	-3.68
Tournai	50.62	3.4
Toyoake, Japan	35.04	137
Trexlertown (Pa.)	40.56	-75.6
Trier	49.76	6.64
Tromsø	69.64	18.96
Trondheim	63.42	10.4
Troyes	48.3	4.08
Tsarskoje-Selo	59.72	30.42
Tsiistre (Võrumaa)	57.66	27.2
Tsitre [Harjumaa]	59.52	25.52
Tucson, Ariz	32.24	-110.98
Tuhalaane	58.18	25.66
Tupenurme	58.64	23.24
Tupenurme (Saare maakond)	58.64	23.22
Turbuneeme	59.62	25.78
Turenki	60.92	24.62
Turkey	40.7	-74.4
Tuudi	58.66	23.76
Tuula (Harjumaa)	59.26	24.44
Tvedestrand	58.62	8.92
Tyresö [Rootsi]	59.24	18.28
Tähtvere	58.4	26.64
Tänassilma	59.34	24.62
Tórshavn	62	-6.76
Tõdva	59.28	24.74
Tõdva küla	59.26	24.72
Tõhela	58.44	24.02
Tõlluste	58.32	22.8
Tõmmiku	59.34	24.38
Tõnura	11.26	78.68
Tõutsi	57.96	26.48
Tüki	58.4	26.58
Türju	57.98	22.04
Türju (Saaremaa)	57.98	22.02
Tšerbakul	42.78	45.46
Udriku	59.3	26.06
Uduvere/Meiuste, Saaremaa	58.6	22.58
Ugandi	-4.6	34.72
Uhtna [Lääne-Virumaa]	59.4	26.56
Ulila [Tartumaa]	58.36	26.44
Ulm	48.4	10
Umbusi (Jõgevamaa)	58.58	26.1
Ungari	47.16	19.5
Urbana (Illinois)	40.12	-88.2
Urumarja	58.42	24.74
Usquert [Holland]	53.4	6.62
Uudeküla	59.18	26.14
Uue-Saaluse	57.76	27.12
Uue-Võidu	58.4	25.6
Uuemõisa (Saaremaa)	58.5	23.1
Uuri	59.48	25.58
Uuri küla (Harjumaa)	59.5	25.58
Uusikaupunki	60.8	21.4
Vaela [Harjumaa]	59.32	24.8
Vaiatu küla	58.82	26.68
Vaida-Aruvalla	59.28	24.96
Vaimastvere	58.8	26.28
Vaimastvere (Jõgevamaa)	58.8	26.26
Vaivere (Saaremaa)	58.28	22.6
Vajangu	59.1	26.04
Valgamaa	57.9	26.16
Valgjärve (Põlvamaa)	58.1	26.64
Valgma	58.86	25.66
Valgu [Raplamaa]	58.8	24.6
Valguta küla	58.2	26.22
Valkla (Harjumaa)	59.48	25.34
Valkse	59.32	24.36
Valma	58.36	25.96
Valtu	58.98	24.84
València	39.46	-0.38
Van Nuys (Cal.)	34.2	-118.48
Vana-Antsla	57.86	26.54
Vanamõisa, Saue vald	59.32	24.52
Vandjala (Harjumaa)	59.44	25.06
Vanha-Ulvila	61.42	21.9
Varbla (Pärnumaa)	58.42	23.74
Varstu (Võrumaa)	57.64	26.68
Vasta küla	59.46	26.7
Vastse-Kuuste	58.18	26.94
Veetka	50.1	14.4
Vejbystrand	56.32	12.76
Vejle	55.72	9.54
Velise (Raplamaa)	58.78	24.52
Veneküla (Harjumaa)	59.42	24.92
Venevere [Lääne-Virumaa]	59	26.7
Vergi	59.6	26.08
Veskimäe	58.38	27
Veszprem	47.1	17.92
Vetepere (Järvamaa)	59.14	25.56
Vidruka	59	23.84
Vigala [Raplamaa]	58.72	24.28
Viiburi	60.72	28.76
Viinistu	59.64	25.76
Viira (Tartumaa)	58.4	27.06
Viisu	58.96	25.68
Viitasaari	63.08	25.86
Viitka	57.68	27.32
Vijayawada	16.52	80.64
Vilina küla [Jõgevamaa]	58.78	26.48
Vilivere	59.2	24.72
Vilusi [Ida-Virumaa]	59.26	27.42
Vilustõ [Põlvamaa]	58	27.32
Vimmerby	57.68	15.86
Viru-Jaagupi [Lääne-Virumaa]	59.24	26.48
Viruna (Pärnumaa)	58.48	23.98
Visela	57.92	26.5
Viterbo	42.42	12.1
Vitsiku küla	59.34	27.22
Vittorio Veneto	45.98	12.3
Vladivostok	43.12	131.88
Vratislavi	51.12	17.04
Väike-Pungerja (Ida-Virumaa)	59.2	27.36
Vändra [Pärnumaa]	58.66	25.04
Värati [Pärnumaa]	58.32	23.98
Västervik [Rootsi]	57.76	16.64
Vääna-Ohtu (Harjumaa)	59.4	24.4
Vårby	59.26	17.88
Võhma-Kabala (Viljandimaa)	58.64	25.56
Võisiku	58.64	25.92
Võivaku (Viljandimaa)	58.48	25.62
Võntküla	58.98	23.8
Võtikvere (Jõgevamaa)	58.88	26.84
Wagga Wagga (N.S.W.)	-35.1	147.38
Wainuiomata	-41.26	174.96
Walden, New York	41.56	-74.2
Walkā	12.96	5.44
Warkworth (Ontario)	44.2	-77.88
Waterlow	36.76	-108.48
Wedemark [Deutschland]	52.56	9.74
Weinheim	49.56	8.68
Weissenhorn [Deutschland]	48.3	10.16
Wellington	-41.28	174.78
Welwyn Garden City	51.8	-0.2
Wemding	48.86	10.72
Werdau	50.74	12.38
Wesel	51.68	6.62
Westport, Conn	41.14	-73.36
Wetherill Park (Australia)	-33.84	150.9
Wheaton, IL	41.86	-88.12
Willowdale [Kanada]	43.78	-79.42
Wilmington	34.22	-77.94
Wilmington (Del.)	39.74	-75.56
Winchester (Mass.)	42.44	-71.14
Windsor	42.3	-83.02
Winnipeg	49.88	-97.16
Winnipeg (Manitoba)	49.9	-97.14
Winterthur [Switzerland]	47.5	8.72
Wittemberch [Wittenberg]	36.64	-4.5
Wittenberg Lutherstadt	51.86	12.64
Wittenbergæ	53	11.76
Worcester	42.26	-71.8
Worms	49.64	8.36
Yarraville (Vic.)	-37.82	144.88
Yonkers (N.Y.)	40.94	-73.9
Zabrze	50.32	18.78
Zaltbommel	51.8	5.24
Zamość	50.72	23.24
Zeulenroda	50.64	12.04
Zlín	49.22	17.68
Zollikon	47.34	8.58
[Kareda] Järvamaa	58.96	25.78
[Kundli], India	28.86	77.12
[Porsa] Mulgimaa	26.68	78.38
Äetsä	61.28	22.68
Ähijärve	57.72	26.52
Ähijärve [Võrumaa]	57.72	26.56
Äksi (Harjumaa)	59.12	25.18
Älvsjö	59.28	18.02
Ämari	59.26	24.22
Ämmuste	58.2	25.8
Änniksaare	59.02	26.94
Ääsmäe (Harjumaa)	59.24	24.54
Õvi	58.46	26.54
Õvi (Tartumaa)	58.46	26.56
Ömmern	57.8	12.5
Örnsköldsvik [Rootsi]	63.28	18.72
Üdruma	58.8	24.08
Ühtri (Hiiumaa)	58.82	22.64
Český Krumlov	48.82	14.32
Ķekava	56.82	24.24
Ķīna	36.56	103.94
Albu	59.16	25.68
Allika	59.46	25.4
Altsaare	58.6	25.36
Anna	58.64	25.86
Are	58.58	24.58
Audru	58.4	24.36
Enge	58.52	25.44
Jõe	59.44	24.58
Kabala	58.68	25.64
Kabila	59.22	24.44
Kalana	58.72	26.04
Kalesi	59.36	25.1
Kallaste	58.66	27.16
Karla	59.18	25.12
Kiltsi	59.08	26.18
Kingisepp	59.36	28.62
Kloostri	59.22	24.12
Kohala	59.4	26.54
Kohatu	59.16	24.5
Kose	59.46	24.88
Kotka	59.54	25.74
Kunda	59.48	26.54
Kuresaar	59.42	24.74
Kurgja-Linnutaja	58.66	25.24
Kuusiku	58.98	24.72
Kärde	58.84	26.28
Käru	58.82	25.16
Kõlleste	58.14	26.8
Kõo	58.64	25.72
Kõrvemaa	59.38	25.7
Lahemaa	59.58	25.78
Lelle	58.86	25
Lindi	58.32	24.26
Luidja [Harjumaa]	59.32	24.92
Metsaääre küla	58.28	24.68
Miila	59.32	26.68
Mora	58.32	26.82
Murru	58.4	24.06
Mustla küla	59.02	25.44
Määra	59.2	24.1
Nehatu	59.44	24.92
Norra	58.9	26.04
Nurmsi küla	58.86	25.7
Oranienbaum	59.9	29.76
Oru	59.2	24.98
Pahkla	59.18	24.84
Pajusi	58.72	25.94
Pala	58.68	27.02
Palermo	59.32	26.36
Peraküla	58.54	25.44
Peri	58	27.08
Petser	57.8	27.62
Pori	58.08	25.84
Põllu küla	58.84	24.96
Rahula	59.28	24.56
Randvere	59.5	24.92
Ratla	59.32	25.2
Rebala	59.46	25.08
Rootsiküla	58.62	27.18
Rujen	57.9	25.32
Rupsi	58.58	27.12
Räägu	58.48	24.56
Rõngu vald	58.18	26.22
Sadala	58.86	26.6
Saka	59.42	27.22
Saksamaa	58.78	26.62
Salla	58.96	26.38
Saula	59.2	25.04
Seliste	58.28	24.08
Selja	58.52	24.8
Setomaa	57.88	27.64
Simuna	59.04	26.4
Sindi	58.4	24.68
Sonda	59.34	26.84
Soomaa	58.48	24.98
Soome	57.8	26.54
Sulu	58.82	24.48
Talli	58.06	24.78
Tapa	59.26	25.96
Taru	59.26	26.26
Tilga	58.18	26.26
Tooma	58.86	26.28
Tori	58.48	24.82
Turba	59.08	24.24
Vahi	59.38	24.44
Valgu	58.82	24.6
Viira	58	27.2
Voka	59.4	27.58
Vändra	58.64	25.04
Algeria	28.14	2.68
Austraalia	-25.72	134.48
Bathurst	-33.4	149.58
Bermagui South	33.34	35.36
Granville	-33.84	151
Greenacres, Australia	-34.86	138.64
Rozelle	-33.86	151.16
Victoria [Australia]	-37.16	144.48
Austria	47.6	14.14
Belgia	50.64	4.66
Louvain	50.88	4.72
Luxembourg	49.78	6.08
Oxford	51.76	-1.26
Bulgaaria	42.76	25.24
Ruse	43.84	25.96
Fredrikshavn	57.44	10.52
Holte	55.8	12.44
Latvia	56.84	24.94
Taani	55.96	10.04
Ameerika Ühendriigid	39.4	-99.4
Araabia Ühendemiraadid	23.92	54.32
Barby	59.86	17.82
Bergen	60.4	5.32
California	36.36	-119.28
Czech Republic	49.74	15.34
Great Britain	53.4	-1.96
Herrnhut	51.02	14.74
Hispaania	40.22	-3.64
Holland	52.24	5.62
India	23.38	79.44
Itaalia	42.82	12.84
Kosel	54.52	9.76
Malaisia	2.5	112.5
Morrisville	35.82	-78.82
Narvik	68.28	17.22
Poland	52.12	19.4
Prantsusmaa	46.56	2.56
Sweden	64.7	17.26
Venemaa	62	96.8
Washington	38.88	-77.02
Woodsville	44.14	-72.02
Eesti	58.68	25.48
Jaagupi	58.04	24.46
Jäneda [Järvamaa]	58.9	25.62
Kaansoo (Raplamaa)	58.92	24.68
Koigi	58.82	25.76
Kolga	59.48	25.62
Kuusalu vald	59.46	25.64
Laane	59.18	25.4
Lehtse [Järvamaa]	59.02	25.88
Maidla	59.24	24.64
Metsaääre (Raplamaa)	58.94	24.88
Mustla	59.06	25.44
Mõisaküla	59.32	24.82
Navesti	58.58	25.54
Pikavere	59.28	25.14
Pikavere küla	59.28	25.12
Polli	59.04	24.54
Puiatu	58.72	25.78
Pärnumaa	58.42	24.46
Rassi [Viljandimaa]	58.54	25.7
Saarde-Pärnu	58.46	24.18
Sääsküla	59.12	25.24
Sõmeru	59.26	24.88
Tallinn - Särghaua	58.28	24.84
Vahastu	59.46	25.6
Vana-Järve	59.4	24.38
Vanamõisa	59.1	25.44
Vardja	59.18	25.22
Viimsi vald	59.7	25.02
Väljaküla	58.18	25.04
Vändra-Kurgja	58.56	24.96
Finland	64.52	26.16
Keuruu	62.28	24.54
Kärkölä	60.86	25.26
Porvoossa	62.68	21.56
Rajamäki	64.48	27.78
Sarvela	65.32	26.44
Suolahti	62.98	26.94
Tampereella	21.56	84.16
Vammala	60.92	22.9
Brest	48.38	-4.5
Montmorency	49	2.32
Taizé	46.5	4.68
Altdorf	49.38	11.36
Baden-Baden	48.76	8.24
Barby	51.98	11.88
Barmen	51.26	7.18
Bingen	48.12	9.26
Brandenburg	52.4	13.96
Cölln	49.68	7.8
Deutschland [i. e. Hamburg]	53.66	10.12
Döhren	53.32	9.7
Ebenhausen	50.14	10.14
Eslingena	48.74	9.32
Geislingen	48.28	8.82
Heiligenstadt	51.38	10.14
Holtland	53.28	7.58
Königsberg	50.08	10.58
Leer	53.22	7.44
Lenningen	48.56	9.48
Lilienthal/Bremen	53.52	8.6
Märzfeld	52.88	9.08
Neustadt	49.36	8.16
Oranienbaum	51.8	12.4
Petersberg	50.56	9.72
Pfaffenhofen	48.36	10.16
Schleswig	54.52	9.58
Weihenstephan	48.64	12.1
Gyoma	46.94	20.82
Pesth	49	12.18
Delhi	28.64	77.22
San Domenica [Italy]	38.66	15.86
Jaapan	36.66	139.28
Taejeon	35.92	128.56
Memel	55.72	21.14
Rigæ	56.98	24.12
Mexico	23.96	-102.56
Breda [Madalmaad]	51.58	4.76
Eerde	51.6	5.5
Elbing	54.16	19.4
Marienwerder	53.72	18.94
W Warszawie	51.98	21.32
Wołowiec	51.3	18.98
Wrocław-Wojnowice	51.18	16.88
Portugal	39.6	-8.52
Ponce	18.02	-66.62
Kimberley	-28.74	24.76
Granada	37.18	-3.6
Zaragoza	41.66	-0.88
Aneby	57.86	14.8
Enskede	59.28	18.04
Högbacka	61	16.98
Kungälv	57.88	11.7
Mores (Suecia)	60.56	14.34
Olofsborg	56.9	14.46
Röhsska	57.7	11.98
Stärholmen	58.92	11.18
Sundsvall	62.4	17.32
Söderköping	58.48	16.32
Väsby	59.52	17.92
Wästerås	59.6	16.54
Ystad	55.36	13.98
Åhus	55.92	14.28
Åland	60.18	19.92
Altdorf	46.88	8.64
Cham	47.18	8.46
V Praze	50.08	14.44
Alberta	55.18	-114.52
Canada	60.12	-113.64
Connecticut	41.56	-72.74
Elora	43.68	-80.44
Hamilton	43.24	-79.84
Kotka-Järve (Kanada)	54.46	-113.96
Kotkajärve	45.2	-79.2
Markham	43.86	-79.34
Mississaugas	43.6	-79.64
Moonstone (Kanada)	44.66	-79.66
Nelson (B.C.)	49.5	-117.3
Ontario	50.94	-84.74
Québec	53.38	-71.76
Seedrioru	43.64	-80.46
Victoria (B.C.)	48.44	-123.38
Warkworth	-36.4	174.64
Abingdon	51.68	-1.28
Brookfield	43.06	-88.12
Burlington	36.1	-79.44
England	52.6	-1.46
Inglismaa	52.16	-0.7
Kent (England)	51.24	0.72
Malden	51.72	0.68
Richmond	51.46	-0.3
Šotimaa	56.48	-4.2
Andover	42.66	-71.14
Bayside	40.78	-73.78
Bloomington	44.82	-93.3
Brooklyn (N.Y.)	40.68	-74
Columbia	34	-81.02
Englewood	40.88	-73.98
Hillsborough	40.5	-74.68
Huntsville	34.72	-86.6
Kempton [USA]	40.94	-88.24
Lakewood	40.1	-74.22
Loveland	40.38	-105.06
Massachusetts	42.36	-71.72
Middletown	39.52	-84.4
Minnesota	46.36	-94.2
New Jersey	39.62	-74.74
Ohio	40.4	-82.7
Ontario	34.06	-117.64
Philadelphia (Wilmington)	39.78	-75.5
Pierre (S.Dak.)	24.92	-80.64
Queens Village (New Jersey)	40.72	-73.74
Richmond	37.54	-77.44
Rochester	44.02	-92.46
Seaside	36.6	-121.84
Takoma Park (Cal.)	39.06	-120.12
Alutaguse	59.24	27.24
Avinurme (Ida-Virumaa)	59.24	27.42
Eesti Vabariik	57.58	27.12
Eru	59.56	25.84
Hargla	59.1	24.9
Juula	58.98	24.8
Kaagvere	58	26.62
Kaarli	59.36	26.46
Karksi	58.6	26.62
Karkuse	59.2	26
Karula	59.54	26.24
Karula (Võrumaa)	57.92	26.7
Kauksi	59	27.24
Kodavere (Jõgevamaa)	58.7	26.16
Kohtla vald	59.16	24.72
Kubija	57.88	26.54
Kurista	58.76	26.32
Kuuda	57.74	27.02
Kärevere	58.74	25.54
Kääpa	58.7	26.84
Kõrveküla	59.36	25.98
Kõrvemetsa [Ida-Virumaa]	59.18	27.24
Mikitamäe [Põlvamaa]	57.96	26.84
Muuga	59.48	24.94
Neitsijärve	58.02	27.2
Nuustaku	57.68	26.3
Pala [Jõgevamaa]	58.64	25.98
Pedaspää (Meeksi vald)	58.22	27.44
Peetri	59.4	24.82
Peetrimõisa	57.92	26.78
Pringi	58	26.28
Puka	59.2	26.62
Päide küla	59.4	26.3
Raadi	57.76	27.3
Ramsi	58.36	26.38
Rehemetsa	58.48	27.2
Ritsiku	57.6	27.28
Rohu	58.92	26.08
Saare [vald, Kääpa]	58.2	24.72
Saare küla (Jõgevamaa)	58.72	26.32
Suigu	59.14	26.8
Tammiku	59.2	24.94
Tännassilma	58.76	25.48
Ulvi	58.9	26.8
Urvaste	59.28	25.1
Urvaste küla	59.26	25.1
Vahi küla	58.6	26.72
Valgamaal	57.92	26.18
Vanaküla	59.48	25.8
Venevere	59	26.72
Vigala	59.1	26.26
Virumaa	57.78	26.94
Väljataguse küla	58.9	25.42
Värska (Põlvamaa)	58.04	27.08
Võrumaa	57.78	27.04
Änniksaare (Ida-Virumaa)	59.4	28.12
Минск	53.9	27.56
Казань	55.8	49.12
Свердловск	56.84	60.6
Йошкар-Ола	56.64	47.88
Вейсенштейн	58.88	25.54
Ижкар	56.84	53.2
Воронеж	51.68	39.18
Душанбе	38.54	68.78
Алматы	43.24	76.92
Либава	56.5	21.02
Ашгабат	37.96	58.38
Варна	43.22	27.92
Красноярск	56.02	92.88
Орел	52.98	36.08
Сыктывкар	61.66	50.82
Владимир	56.14	40.4
Ростов-на-Дону	47.22	39.72
Скривери	56.64	25.12
Зарайск	54.76	38.88
Кемерово	55.32	86.08
Пловдив	42.16	24.76
Саласпилс	56.86	24.38
Саратов	51.54	46
Смоленск	54.78	32.04
Тверь	56.86	35.9
Улаанбаатар	47.9	106.88
Горький	56.32	44
Днепропетровск	48.46	35.04
Львов	49.84	24.02
Новгород	58.52	31.26
Улан-Удэ	51.82	107.6
Астрахань	46.36	48.04
Великие Луки	56.34	30.56
Витебск	55.2	30.2
Вологда	59.22	39.88
Гомель	52.42	30.98
Гродно	53.68	23.82
Жодино	54.1	28.32
Иваново	57	40.96
Кузьминки	55.7	37.8
Куркунд-Немме	58.9	22.2
Обнинск	55.1	36.62
Рязань	54.64	39.68
Симферополь	44.96	34.12
Таганрог	47.24	38.9
Тула	54.2	37.62
Уфа	54.74	55.98
Харбин	45.76	126.64
Челябинск	55.16	61.42
Шупашкар	56.14	47.24
Абя	58.14	25.28
Б.м	55.82	49.1
Балашиха	55.8	37.96
Барнаул	53.36	83.76
Бендеры	46.82	29.48
Брянск	53.24	34.36
Велико-Търново	43.08	25.62
Волгоград	48.72	44.5
Гапсaль	59.9	30.26
Дзержинск	56.24	43.46
Днiпропетровськ	48.46	35
Долгопрудный	55.96	37.5
Донецк	48.02	37.8
Дубровицы (Моск. обл.)	55.44	37.5
Душаньбе	38.56	68.8
ЕС	46.04	0.72
Житомир	50.26	28.68
Иркутск	52.3	104.3
Ичня	50.86	32.38
Кавасту	58.36	27.04
Кассари	37.12	14.96
Клин	56.32	36.72
Колывань	55.32	82.74
Кострома	57.78	40.94
Кунгур	57.44	56.96
Куру	5.16	-52.64
Кяхта	50.36	106.44
Лужицы	59.64	28.36
Магадан	59.56	150.8
Махачкала	42.98	47.5
Могилев	53.92	30.34
Нижный Архыз	43.68	41.46
Николаев	46.98	31.98
Новочеркасск	47.42	40.1
Новый Петергоф	59.88	29.92
Оренбург	51.78	55.1
Остров	57.34	28.36
Полтава	49.6	34.56
Пущино	54.82	37.62
Резекне	56.52	27.34
Ростов-На-Дону	47.24	39.7
Самохваловичи	53.74	27.5
Саранск	54.18	45.18
Сергиев Посад [Россия]	56.32	38.14
Скарятино	52.72	37.32
Сухуми	43	41
Тобольск	58.2	68.24
Тыравере	58.26	26.46
Тюмень	57.16	65.52
Улаан-баатар	47.92	106.92
Хабаровск	48.48	135.08
Цхинвали	42.22	43.96
Черновцы	48.28	25.94
Черноголовка	56	38.36
Черноголовка (Моск. обл.)	56	38.38
Эзель	49.5	3.8
Академия наук Эстонии	58.6	25.02
Валк	57.78	26.02
Вольмар	57.68	25.4
Кюндя	57.72	27.2
Харку	59.4	24.62
Мiнск	53.26	34.36
Кегель	57.98	56.2
Тифлис	41.68	44.8
Корнталь	48.84	9.12
Фрунзе	42.86	74.6
Кайнар	49.76	71.1
Вятка	58.48	35.68
Келломяки	60.18	29.8
Куйбышев	55.44	78.34
Малаховка	52.5	53.52
Порт-Артур	44.18	42.9
Украина	49.04	31.36
Sassukvere (Jхgevamaa)	58.8	26.62
